{"fetched_at":"2026-03-30T06:02:59Z","count":15439,"tles":[{"name":"STARLINK-31096","line1":"1 58592U 23200D   26087.62381906  .00093687  00000+0  35698-2 0  9999","line2":"2 58592  42.9997  63.0336 0003458 164.2083 195.8876 15.25684476126490","category":"Starlink"}]}